EUTELSAT 7A             
1 28187U 04008A   25243.21092281  .00000105  00000+0  00000+0 0  9993
2 28187   5.0877  75.4712 0001125 118.1275  82.7769  1.00273942 78445
EUTELSAT 174A           
1 28924U 05052A   25243.20319134  .00000012  00000+0  00000+0 0  9997
2 28924   3.4780  80.1408 0006151  77.1367  69.5138  1.00270619 49421
EUTELSAT HOTBIRD 13B    
1 29270U 06032A   25243.24661154  .00000159  00000+0  00000+0 0  9999
2 29270   0.9064  85.4971 0004070  68.9963 307.0538  1.00274828 44407
EUTELSAT HOTBIRD 13C    
1 33459U 08065A   25243.23759816 -.00000097  00000+0  00000+0 0  9995
2 33459   2.1987  82.6589 0004019  94.8976 235.1463  1.00272646 44435
EUTELSAT 36B            
1 36101U 09065A   25243.25007822  .00000116  00000+0  00000+0 0  9999
2 36101   0.0521 332.7359 0005857 186.9820 320.4704  1.00270822 57804
EUTELSAT KA-SAT 9A      
1 37258U 10069A   25243.24184485  .00000065  00000+0  00000+0 0  9992
2 37258   0.0506 319.5040 0003546 172.9174 303.2984  1.00270839 41092
EUTELSAT 7 WEST A       
1 37816U 11051A   25243.23855150 -.00000056  00000+0  00000+0 0  9998
2 37816   0.0725  28.1851 0005483 140.1554 249.8927  1.00272852 50975
EUTELSAT 16A            
1 37836U 11057A   25243.24323153  .00000108  00000+0  00000+0 0  9997
2 37836   0.0667   8.4037 0005388 151.2814 283.5303  1.00272921  4424
